[{"OBJECT_NAME":"STARLINK-6115","OBJECT_ID":"2023-046AH","EPOCH":"2026-03-17T20:00:01.999008","MEAN_MOTION":15.20725857,"ECCENTRICITY":0.000223,"INCLINATION":43.0002,"RA_OF_ASC_NODE":101.1716,"ARG_OF_PERICENTER":255.8307,"MEAN_ANOMALY":96.5632,"EPHEMERIS_TYPE":0,"CLASSIFICATION_TYPE":"U","NORAD_CAT_ID":56123,"ELEMENT_SET_NO":999,"REV_AT_EPOCH":582,"BSTAR":0.0024534,"MEAN_MOTION_DOT":0.00055183,"MEAN_MOTION_DDOT":0},{"OBJECT_NAME":"STARLINK-6126","OBJECT_ID":"2023-046AJ","EPOCH":"2026-03-17T20:00:01.999008","MEAN_MOTION":15.25588148,"ECCENTRICITY":9.16e-5,"INCLINATION":43.001,"RA_OF_ASC_NODE":100.7747,"ARG_OF_PERICENTER":259.3665,"MEAN_ANOMALY":265.7902,"EPHEMERIS_TYPE":0,"CLASSIFICATION_TYPE":"U","NORAD_CAT_ID":56124,"ELEMENT_SET_NO":999,"REV_AT_EPOCH":556,"BSTAR":0.045034,"MEAN_MOTION_DOT":0.0127833,"MEAN_MOTION_DDOT":0},{"OBJECT_NAME":"STARLINK-6119","OBJECT_ID":"2023-046AK","EPOCH":"2026-03-17T20:00:01.999008","MEAN_MOTION":15.18912399,"ECCENTRICITY":0.000192,"INCLINATION":43.0002,"RA_OF_ASC_NODE":101.0194,"ARG_OF_PERICENTER":290.1934,"MEAN_ANOMALY":130.6255,"EPHEMERIS_TYPE":0,"CLASSIFICATION_TYPE":"U","NORAD_CAT_ID":56125,"ELEMENT_SET_NO":999,"REV_AT_EPOCH":581,"BSTAR":0.0011904,"MEAN_MOTION_DOT":0.00025164,"MEAN_MOTION_DDOT":0},{"OBJECT_NAME":"STARLINK-6124","OBJECT_ID":"2023-046AL","EPOCH":"2026-03-17T20:00:01.999008","MEAN_MOTION":15.2134499,"ECCENTRICITY":0.0001594,"INCLINATION":42.9993,"RA_OF_ASC_NODE":100.5315,"ARG_OF_PERICENTER":277.1142,"MEAN_ANOMALY":348.6632,"EPHEMERIS_TYPE":0,"CLASSIFICATION_TYPE":"U","NORAD_CAT_ID":56126,"ELEMENT_SET_NO":999,"REV_AT_EPOCH":582,"BSTAR":0.00097933,"MEAN_MOTION_DOT":0.00022183,"MEAN_MOTION_DDOT":0},{"OBJECT_NAME":"STARLINK-6104","OBJECT_ID":"2023-046AM","EPOCH":"2026-03-17T20:00:01.999008","MEAN_MOTION":15.04819969,"ECCENTRICITY":6.04e-5,"INCLINATION":43.0008,"RA_OF_ASC_NODE":101.8131,"ARG_OF_PERICENTER":205.9293,"MEAN_ANOMALY":235.8642,"EPHEMERIS_TYPE":0,"CLASSIFICATION_TYPE":"U","NORAD_CAT_ID":56127,"ELEMENT_SET_NO":999,"REV_AT_EPOCH":582,"BSTAR":0.001555,"MEAN_MOTION_DOT":0.00022187,"MEAN_MOTION_DDOT":0},{"OBJECT_NAME":"STARLINK-6122","OBJECT_ID":"2023-046AN","EPOCH":"2026-03-17T20:00:01.999008","MEAN_MOTION":15.22535624,"ECCENTRICITY":0.0001885,"INCLINATION":43.0003,"RA_OF_ASC_NODE":101.0104,"ARG_OF_PERICENTER":301.1089,"MEAN_ANOMALY":123.0849,"EPHEMERIS_TYPE":0,"CLASSIFICATION_TYPE":"U","NORAD_CAT_ID":56128,"ELEMENT_SET_NO":999,"REV_AT_EPOCH":581,"BSTAR":0.051931,"MEAN_MOTION_DOT":0.0133206,"MEAN_MOTION_DDOT":0},{"OBJECT_NAME":"STARLINK-6121","OBJECT_ID":"2023-046AP","EPOCH":"2026-03-17T20:00:01.999008","MEAN_MOTION":15.17768626,"ECCENTRICITY":0.0001666,"INCLINATION":42.9996,"RA_OF_ASC_NODE":49.1174,"ARG_OF_PERICENTER":276.9804,"MEAN_ANOMALY":143.3704,"EPHEMERIS_TYPE":0,"CLASSIFICATION_TYPE":"U","NORAD_CAT_ID":56129,"ELEMENT_SET_NO":999,"REV_AT_EPOCH":582,"BSTAR":0.0034625,"MEAN_MOTION_DOT":0.00071716,"MEAN_MOTION_DDOT":0},{"OBJECT_NAME":"STARLINK-6117","OBJECT_ID":"2023-046AQ","EPOCH":"2026-03-17T20:00:01.999008","MEAN_MOTION":15.20202506,"ECCENTRICITY":0.0001124,"INCLINATION":42.9999,"RA_OF_ASC_NODE":100.6586,"ARG_OF_PERICENTER":291.5334,"MEAN_ANOMALY":280.209,"EPHEMERIS_TYPE":0,"CLASSIFICATION_TYPE":"U","NORAD_CAT_ID":56130,"ELEMENT_SET_NO":999,"REV_AT_EPOCH":582,"BSTAR":0.00096403,"MEAN_MOTION_DOT":0.00021105,"MEAN_MOTION_DDOT":0},{"OBJECT_NAME":"STARLINK-6120","OBJECT_ID":"2023-046AR","EPOCH":"2026-03-17T20:00:01.999008","MEAN_MOTION":15.20325187,"ECCENTRICITY":0.0001577,"INCLINATION":43.0018,"RA_OF_ASC_NODE":100.8839,"ARG_OF_PERICENTER":273.0623,"MEAN_ANOMALY":201.9352,"EPHEMERIS_TYPE":0,"CLASSIFICATION_TYPE":"U","NORAD_CAT_ID":56131,"ELEMENT_SET_NO":999,"REV_AT_EPOCH":561,"BSTAR":0.035321,"MEAN_MOTION_DOT":0.0084045,"MEAN_MOTION_DDOT":0},{"OBJECT_NAME":"STARLINK-6071","OBJECT_ID":"2023-046AS","EPOCH":"2026-03-17T20:00:01.999008","MEAN_MOTION":15.26647303,"ECCENTRICITY":0.0002269,"INCLINATION":43,"RA_OF_ASC_NODE":100.3545,"ARG_OF_PERICENTER":278.8617,"MEAN_ANOMALY":59.6834,"EPHEMERIS_TYPE":0,"CLASSIFICATION_TYPE":"U","NORAD_CAT_ID":56132,"ELEMENT_SET_NO":999,"REV_AT_EPOCH":576,"BSTAR":0.0011068,"MEAN_MOTION_DOT":0.00029465,"MEAN_MOTION_DDOT":0},{"OBJECT_NAME":"STARLINK-5566","OBJECT_ID":"2023-046AT","EPOCH":"2026-03-17T20:00:01.999008","MEAN_MOTION":15.20172647,"ECCENTRICITY":0.0002233,"INCLINATION":43.0004,"RA_OF_ASC_NODE":100.3345,"ARG_OF_PERICENTER":270.753,"MEAN_ANOMALY":75.7671,"EPHEMERIS_TYPE":0,"CLASSIFICATION_TYPE":"U","NORAD_CAT_ID":56133,"ELEMENT_SET_NO":999,"REV_AT_EPOCH":581,"BSTAR":0.0011023,"MEAN_MOTION_DOT":0.00024157,"MEAN_MOTION_DDOT":0},{"OBJECT_NAME":"STARLINK-5564","OBJECT_ID":"2023-046AU","EPOCH":"2026-03-17T20:00:01.999008","MEAN_MOTION":15.24667001,"ECCENTRICITY":0.0001924,"INCLINATION":42.9999,"RA_OF_ASC_NODE":100.5284,"ARG_OF_PERICENTER":263.8584,"MEAN_ANOMALY":0.9059,"EPHEMERIS_TYPE":0,"CLASSIFICATION_TYPE":"U","NORAD_CAT_ID":56134,"ELEMENT_SET_NO":999,"REV_AT_EPOCH":581,"BSTAR":0.047821,"MEAN_MOTION_DOT":0.01324933,"MEAN_MOTION_DDOT":0},{"OBJECT_NAME":"STARLINK-5489","OBJECT_ID":"2023-046AW","EPOCH":"2026-03-17T20:00:01.999008","MEAN_MOTION":15.20569978,"ECCENTRICITY":0.0001322,"INCLINATION":42.9991,"RA_OF_ASC_NODE":100.5578,"ARG_OF_PERICENTER":281.922,"MEAN_ANOMALY":330.6077,"EPHEMERIS_TYPE":0,"CLASSIFICATION_TYPE":"U","NORAD_CAT_ID":56136,"ELEMENT_SET_NO":999,"REV_AT_EPOCH":571,"BSTAR":0.00097837,"MEAN_MOTION_DOT":0.00021658,"MEAN_MOTION_DDOT":0},{"OBJECT_NAME":"STARLINK-5090","OBJECT_ID":"2023-046AX","EPOCH":"2026-03-17T20:00:01.999008","MEAN_MOTION":15.18432066,"ECCENTRICITY":0.0001879,"INCLINATION":43,"RA_OF_ASC_NODE":100.4933,"ARG_OF_PERICENTER":250.1636,"MEAN_ANOMALY":28.7032,"EPHEMERIS_TYPE":0,"CLASSIFICATION_TYPE":"U","NORAD_CAT_ID":56137,"ELEMENT_SET_NO":999,"REV_AT_EPOCH":581,"BSTAR":0.00095376,"MEAN_MOTION_DOT":0.0001982,"MEAN_MOTION_DDOT":0},{"OBJECT_NAME":"STARLINK-4774","OBJECT_ID":"2023-046AY","EPOCH":"2026-03-17T20:00:01.999008","MEAN_MOTION":15.18976773,"ECCENTRICITY":8.63e-5,"INCLINATION":43.0009,"RA_OF_ASC_NODE":100.8562,"ARG_OF_PERICENTER":323.7449,"MEAN_ANOMALY":163.2845,"EPHEMERIS_TYPE":0,"CLASSIFICATION_TYPE":"U","NORAD_CAT_ID":56138,"ELEMENT_SET_NO":999,"REV_AT_EPOCH":576,"BSTAR":0.0025543,"MEAN_MOTION_DOT":0.00054595,"MEAN_MOTION_DDOT":0},{"OBJECT_NAME":"STARLINK-5375","OBJECT_ID":"2023-046BA","EPOCH":"2026-03-17T20:00:01.999008","MEAN_MOTION":15.17175934,"ECCENTRICITY":0.0001044,"INCLINATION":43.0007,"RA_OF_ASC_NODE":100.8314,"ARG_OF_PERICENTER":314.8441,"MEAN_ANOMALY":181.5792,"EPHEMERIS_TYPE":0,"CLASSIFICATION_TYPE":"U","NORAD_CAT_ID":56140,"ELEMENT_SET_NO":999,"REV_AT_EPOCH":576,"BSTAR":0.0011305,"MEAN_MOTION_DOT":0.00022704,"MEAN_MOTION_DDOT":0},{"OBJECT_NAME":"STARLINK-5377","OBJECT_ID":"2023-046BB","EPOCH":"2026-03-17T20:00:01.999008","MEAN_MOTION":15.18647855,"ECCENTRICITY":0.0002154,"INCLINATION":43.0004,"RA_OF_ASC_NODE":100.4153,"ARG_OF_PERICENTER":263.036,"MEAN_ANOMALY":48.5875,"EPHEMERIS_TYPE":0,"CLASSIFICATION_TYPE":"U","NORAD_CAT_ID":56141,"ELEMENT_SET_NO":999,"REV_AT_EPOCH":581,"BSTAR":0.00095932,"MEAN_MOTION_DOT":0.00020064,"MEAN_MOTION_DDOT":0}]
