STARLINK-6115           
1 56123U 23046AH  26076.83335647  .00055183  00000+0  24534-2 0  9993
2 56123  43.0002 101.1716 0002230 255.8307  96.5632 15.20725857  5820
STARLINK-6126           
1 56124U 23046AJ  26076.83335647  .01278330  00000+0  45034-1 0  9993
2 56124  43.0010 100.7747 0000916 259.3665 265.7902 15.25588148  5560
STARLINK-6119           
1 56125U 23046AK  26076.83335647  .00025164  00000+0  11904-2 0  9998
2 56125  43.0002 101.0194 0001920 290.1934 130.6255 15.18912399  5810
STARLINK-6124           
1 56126U 23046AL  26076.83335647  .00022183  00000+0  97933-3 0  9994
2 56126  42.9993 100.5315 0001594 277.1142 348.6632 15.21344990  5821
STARLINK-6104           
1 56127U 23046AM  26076.83335647  .00022187  00000+0  15550-2 0  9993
2 56127  43.0008 101.8131 0000604 205.9293 235.8642 15.04819969  5820
STARLINK-6122           
1 56128U 23046AN  26076.83335647  .01332060  00000+0  51931-1 0  9991
2 56128  43.0003 101.0104 0001885 301.1089 123.0849 15.22535624  5811
STARLINK-6121           
1 56129U 23046AP  26076.83335647  .00071716  00000+0  34625-2 0  9991
2 56129  42.9996  49.1174 0001666 276.9804 143.3704 15.17768626  5821
STARLINK-6117           
1 56130U 23046AQ  26076.83335647  .00021105  00000+0  96403-3 0  9993
2 56130  42.9999 100.6586 0001124 291.5334 280.2090 15.20202506  5829
STARLINK-6120           
1 56131U 23046AR  26076.83335647  .00840450  00000+0  35321-1 0  9996
2 56131  43.0018 100.8839 0001577 273.0623 201.9352 15.20325187  5614
STARLINK-6071           
1 56132U 23046AS  26076.83335647  .00029465  00000+0  11068-2 0  9995
2 56132  43.0000 100.3545 0002269 278.8617  59.6834 15.26647303  5762
STARLINK-5566           
1 56133U 23046AT  26076.83335647  .00024157  00000+0  11023-2 0  9990
2 56133  43.0004 100.3345 0002233 270.7530  75.7671 15.20172647  5813
STARLINK-5564           
1 56134U 23046AU  26076.83335647  .01324933  00000+0  47821-1 0  9991
2 56134  42.9999 100.5284 0001924 263.8584   0.9059 15.24667001  5814
STARLINK-5489           
1 56136U 23046AW  26076.83335647  .00021658  00000+0  97837-3 0  9994
2 56136  42.9991 100.5578 0001322 281.9220 330.6077 15.20569978  5716
STARLINK-5090           
1 56137U 23046AX  26076.83335647  .00019820  00000+0  95376-3 0  9999
2 56137  43.0000 100.4933 0001879 250.1636  28.7032 15.18432066  5811
STARLINK-4774           
1 56138U 23046AY  26076.83335647  .00054595  00000+0  25543-2 0  9996
2 56138  43.0009 100.8562 0000863 323.7449 163.2845 15.18976773  5763
STARLINK-5375           
1 56140U 23046BA  26076.83335647  .00022704  00000+0  11305-2 0  9997
2 56140  43.0007 100.8314 0001044 314.8441 181.5792 15.17175934  5767
STARLINK-5377           
1 56141U 23046BB  26076.83335647  .00020064  00000+0  95932-3 0  9994
2 56141  43.0004 100.4153 0002154 263.0360  48.5875 15.18647855  5817
